J94E00J 18.5   0.15 J9439 346.47468  188.11675   16.95773    5.03261  0.3455159  0.26668849   2.3903777    MPC 23324         1   17 days              Williams   2005          1994 EJ            19940323
